{
  "norad_id": 53700,
  "name": "STARLINK-4725",
  "history": [
    {
      "epoch": "2026-04-17T14:27:46.668672Z",
      "apogee_km": 540.7707487434409,
      "perigee_km": 538.7254068413413,
      "latitude_deg": 3.80426835356218e-05,
      "longitude_deg": 6.382160190238163,
      "height_km": 540.6520534876161,
      "semi_major_axis_km": 6917.885077792391,
      "eccentricity": 0.00014783,
      "inclination_deg": 53.2174,
      "raan_deg": 69.0602,
      "arg_perigee_deg": 90.4729,
      "mean_anomaly_deg": 269.6433,
      "mean_motion_rev_day": 15.08838466
    },
    {
      "epoch": "2026-04-18T14:18:33.875424Z",
      "apogee_km": 540.7446560884564,
      "perigee_km": 538.7675222435737,
      "latitude_deg": -4.87023579315281e-05,
      "longitude_deg": 3.2457625969387283,
      "height_km": 540.7102679965094,
      "semi_major_axis_km": 6917.893089166015,
      "eccentricity": 0.0001429,
      "inclination_deg": 53.2171,
      "raan_deg": 64.5999,
      "arg_perigee_deg": 93.3979,
      "mean_anomaly_deg": 266.7176,
      "mean_motion_rev_day": 15.08835845
    },
    {
      "epoch": "2026-04-19T14:09:20.983680Z",
      "apogee_km": 540.7233645426113,
      "perigee_km": 538.7780545186915,
      "latitude_deg": 5.524507209130577e-06,
      "longitude_deg": 0.10908014369961731,
      "height_km": 540.7079578862299,
      "semi_major_axis_km": 6917.887709530652,
      "eccentricity": 0.0001406,
      "inclination_deg": 53.2169,
      "raan_deg": 60.1388,
      "arg_perigee_deg": 93.6345,
      "mean_anomaly_deg": 266.4808,
      "mean_motion_rev_day": 15.08837605
    },
    {
      "epoch": "2026-04-20T14:00:08.494560Z",
      "apogee_km": 540.8533510882944,
      "perigee_km": 538.6632837887009,
      "latitude_deg": 1.9889346989831588e-05,
      "longitude_deg": -3.0304152026462194,
      "height_km": 540.8080784266061,
      "semi_major_axis_km": 6917.895317438498,
      "eccentricity": 0.00015829,
      "inclination_deg": 53.2179,
      "raan_deg": 55.6766,
      "arg_perigee_deg": 98.1004,
      "mean_anomaly_deg": 262.0168,
      "mean_motion_rev_day": 15.08835116
    },
    {
      "epoch": "2026-04-21T20:12:27.664704Z",
      "apogee_km": 540.8803294619247,
      "perigee_km": 538.6126472544402,
      "latitude_deg": 1.3018326138763927e-05,
      "longitude_deg": -103.00008765706231,
      "height_km": 540.6791037104326,
      "semi_major_axis_km": 6917.883488358182,
      "eccentricity": 0.0001639,
      "inclination_deg": 53.2162,
      "raan_deg": 50.0273,
      "arg_perigee_deg": 91.8918,
      "mean_anomaly_deg": 268.2262,
      "mean_motion_rev_day": 15.08838986
    },
    {
      "epoch": "2026-04-22T20:03:15.382080Z",
      "apogee_km": 540.8058249153073,
      "perigee_km": 538.7387536196748,
      "latitude_deg": -2.8849257824581703e-05,
      "longitude_deg": -106.13718820459077,
      "height_km": 540.6833408493544,
      "semi_major_axis_km": 6917.909289267491,
      "eccentricity": 0.0001494,
      "inclination_deg": 53.2209,
      "raan_deg": 45.5684,
      "arg_perigee_deg": 90.8404,
      "mean_anomaly_deg": 269.2759,
      "mean_motion_rev_day": 15.08830545
    },
    {
      "epoch": "2026-04-23T11:57:06.760224Z",
      "apogee_km": 540.8640104514843,
      "perigee_km": 538.6473792741972,
      "latitude_deg": 2.0733693164846817e-05,
      "longitude_deg": 11.773280333861628,
      "height_km": 540.651132378401,
      "semi_major_axis_km": 6917.8926948628405,
      "eccentricity": 0.00016021,
      "inclination_deg": 53.2194,
      "raan_deg": 42.5958,
      "arg_perigee_deg": 89.9929,
      "mean_anomaly_deg": 270.1247,
      "mean_motion_rev_day": 15.08835974
    },
    {
      "epoch": "2026-04-24T11:47:53.896128Z",
      "apogee_km": 540.7322475722976,
      "perigee_km": 538.8588714351845,
      "latitude_deg": -1.13868280481342e-05,
      "longitude_deg": 8.637217575029107,
      "height_km": 540.5787139109293,
      "semi_major_axis_km": 6917.932559503741,
      "eccentricity": 0.0001354,
      "inclination_deg": 53.2187,
      "raan_deg": 38.1355,
      "arg_perigee_deg": 83.089,
      "mean_anomaly_deg": 277.0256,
      "mean_motion_rev_day": 15.08822932
    },
    {
      "epoch": "2026-04-25T11:38:40.657056Z",
      "apogee_km": 540.8440284729486,
      "perigee_km": 538.6496757150644,
      "latitude_deg": -5.153542790473941e-05,
      "longitude_deg": 5.501216372588025,
      "height_km": 540.5873498069776,
      "semi_major_axis_km": 6917.883852094006,
      "eccentricity": 0.0001586,
      "inclination_deg": 53.2181,
      "raan_deg": 33.6737,
      "arg_perigee_deg": 87.1278,
      "mean_anomaly_deg": 272.9895,
      "mean_motion_rev_day": 15.08838867
    },
    {
      "epoch": "2026-04-26T22:37:09.585120Z",
      "apogee_km": 540.8575812438858,
      "perigee_km": 538.6249052196645,
      "latitude_deg": -1.6818034432757501e-06,
      "longitude_deg": -167.0973396496364,
      "height_km": 540.6546610340198,
      "semi_major_axis_km": 6917.878243231775,
      "eccentricity": 0.00016137,
      "inclination_deg": 53.2168,
      "raan_deg": 27.132,
      "arg_perigee_deg": 90.9306,
      "mean_anomaly_deg": 269.1871,
      "mean_motion_rev_day": 15.08840702
    },
    {
      "epoch": "2026-04-27T11:20:14.895168Z",
      "apogee_km": 540.7683358007243,
      "perigee_km": 538.720642879879,
      "latitude_deg": -2.525930961561467e-05,
      "longitude_deg": -0.770897479341002,
      "height_km": 540.7123564305798,
      "semi_major_axis_km": 6917.881489340301,
      "eccentricity": 0.000148,
      "inclination_deg": 53.2168,
      "raan_deg": 24.7529,
      "arg_perigee_deg": 94.0541,
      "mean_anomaly_deg": 266.062,
      "mean_motion_rev_day": 15.0883964
    },
    {
      "epoch": "2026-04-28T20:43:20.771904Z",
      "apogee_km": 540.8587648775538,
      "perigee_km": 538.6242901131727,
      "latitude_deg": -7.471841973791626e-06,
      "longitude_deg": -149.16024143275806,
      "height_km": 540.5993590610883,
      "semi_major_axis_km": 6917.878527495363,
      "eccentricity": 0.0001615,
      "inclination_deg": 53.2182,
      "raan_deg": 18.5091,
      "arg_perigee_deg": 88.0711,
      "mean_anomaly_deg": 272.0466,
      "mean_motion_rev_day": 15.08840609
    },
    {
      "epoch": "2026-04-29T20:34:08.287104Z",
      "apogee_km": 540.8418352982071,
      "perigee_km": 538.6876007032206,
      "latitude_deg": -3.634109523300104e-05,
      "longitude_deg": -152.2994848517255,
      "height_km": 540.6248464813126,
      "semi_major_axis_km": 6917.901718000713,
      "eccentricity": 0.0001557,
      "inclination_deg": 53.2181,
      "raan_deg": 14.0472,
      "arg_perigee_deg": 88.1176,
      "mean_anomaly_deg": 271.9994,
      "mean_motion_rev_day": 15.08833022
    },
    {
      "epoch": "2026-04-30T15:38:45.787776Z",
      "apogee_km": 540.9154835805266,
      "perigee_km": 538.5569038938529,
      "latitude_deg": 6.400578769403193e-06,
      "longitude_deg": -82.80667412289976,
      "height_km": 540.5437013448695,
      "semi_major_axis_km": 6917.8731937371895,
      "eccentricity": 0.00017047,
      "inclination_deg": 53.2181,
      "raan_deg": 10.4797,
      "arg_perigee_deg": 85.7305,
      "mean_anomaly_deg": 274.3882,
      "mean_motion_rev_day": 15.08842354
    },
    {
      "epoch": "2026-05-02T08:58:47.819712Z",
      "apogee_km": 540.7824344571345,
      "perigee_km": 538.740270863429,
      "latitude_deg": -1.9811626622313432e-05,
      "longitude_deg": 7.7570147846900905,
      "height_km": 540.639943997225,
      "semi_major_axis_km": 6917.8983526602815,
      "eccentricity": 0.0001476,
      "inclination_deg": 53.218,
      "raan_deg": 2.7494,
      "arg_perigee_deg": 89.045,
      "mean_anomaly_deg": 271.0711,
      "mean_motion_rev_day": 15.08834123
    },
    {
      "epoch": "2026-05-03T15:11:07.077120Z",
      "apogee_km": 540.7670636925695,
      "perigee_km": 538.7152210355443,
      "latitude_deg": 1.69110671473307e-05,
      "longitude_deg": -92.21259002708726,
      "height_km": 540.5767583214539,
      "semi_major_axis_km": 6917.878142364057,
      "eccentricity": 0.0001483,
      "inclination_deg": 53.2195,
      "raan_deg": 357.1005,
      "arg_perigee_deg": 86.6391,
      "mean_anomaly_deg": 273.4771,
      "mean_motion_rev_day": 15.08840735
    },
    {
      "epoch": "2026-05-04T15:01:54.564672Z",
      "apogee_km": 540.7518966112684,
      "perigee_km": 538.7678437888944,
      "latitude_deg": 2.9205356357964377e-05,
      "longitude_deg": -95.35099098289574,
      "height_km": 540.5574131519097,
      "semi_major_axis_km": 6917.896870200081,
      "eccentricity": 0.0001434,
      "inclination_deg": 53.2187,
      "raan_deg": 352.6393,
      "arg_perigee_deg": 84.3188,
      "mean_anomaly_deg": 275.7968,
      "mean_motion_rev_day": 15.08834608
    },
    {
      "epoch": "2026-05-05T18:03:27.120672Z",
      "apogee_km": 540.6765121174903,
      "perigee_km": 538.7602661746969,
      "latitude_deg": -5.0812102355794224e-05,
      "longitude_deg": -146.90251118254466,
      "height_km": 540.5642985088508,
      "semi_major_axis_km": 6917.855389146093,
      "eccentricity": 0.0001385,
      "inclination_deg": 53.2185,
      "raan_deg": 347.5834,
      "arg_perigee_deg": 87.015,
      "mean_anomaly_deg": 273.1,
      "mean_motion_rev_day": 15.08848179
    },
    {
      "epoch": "2026-05-06T21:05:01.517856Z",
      "apogee_km": 540.7802645711636,
      "perigee_km": 538.7560855169459,
      "latitude_deg": -2.049423435409724e-05,
      "longitude_deg": 161.53825797769326,
      "height_km": 540.5848808998495,
      "semi_major_axis_km": 6917.905175044055,
      "eccentricity": 0.0001463,
      "inclination_deg": 53.2182,
      "raan_deg": 342.5274,
      "arg_perigee_deg": 85.526,
      "mean_anomaly_deg": 274.5899,
      "mean_motion_rev_day": 15.08831891
    }
  ]
}